{
    "links": {
        "self": "http://www.neowsapp.com/rest/v1/neo/3379831?api_key=iIulBulltgU6a56xZRHN4H3l9WmuAYTsLGpBGhQ2"
    },
    "id": "3379831",
    "neo_reference_id": "3379831",
    "name": "(2007 NT4)",
    "designation": "2007 NT4",
    "nasa_jpl_url": "http://ssd.jpl.nasa.gov/sbdb.cgi?sstr=3379831",
    "absolute_magnitude_h": 23.8,
    "estimated_diameter": {
        "kilometers": {
            "estimated_diameter_min": 0.046190746,
            "estimated_diameter_max": 0.1032856481
        },
        "meters": {
            "estimated_diameter_min": 46.1907460282,
            "estimated_diameter_max": 103.2856480504
        },
        "miles": {
            "estimated_diameter_min": 0.0287015901,
            "estimated_diameter_max": 0.0641787064
        },
        "feet": {
            "estimated_diameter_min": 151.544447199,
            "estimated_diameter_max": 338.8636855496
        }
    },
    "is_potentially_hazardous_asteroid": false,
    "close_approach_data": [
        {
            "close_approach_date": "2007-06-27",
            "close_approach_date_full": "2007-Jun-27 03:03",
            "epoch_date_close_approach": 1182913380000,
            "relative_velocity": {
                "kilometers_per_second": "6.3872382966",
                "kilometers_per_hour": "22994.0578678825",
                "miles_per_hour": "14287.6133457406"
            },
            "miss_distance": {
                "astronomical": "0.0733153888",
                "lunar": "28.5196862432",
                "kilometers": "10967826.002701856",
                "miles": "6815091.0581073728"
            },
            "orbiting_body": "Earth"
        }
    ],
    "orbital_data": {
        "orbit_id": "7",
        "orbit_determination_date": "2017-04-06 09:06:17",
        "first_observation_date": "2007-07-15",
        "last_observation_date": "2007-07-19",
        "data_arc_in_days": 4,
        "observations_used": 19,
        "orbit_uncertainty": "9",
        "minimum_orbit_intersection": ".066854",
        "jupiter_tisserand_invariant": "4.188",
        "epoch_osculation": "2454298.5",
        "eccentricity": ".3467853759333245",
        "semi_major_axis": "1.654818773146866",
        "inclination": "9.298933284815726",
        "ascending_node_longitude": "102.1702967600737",
        "orbital_period": "777.5424085657303",
        "perihelion_distance": "1.080951822799607",
        "perihelion_argument": "169.8384233055126",
        "aphelion_distance": "2.228685723494125",
        "perihelion_time": "2454274.181330955342",
        "mean_anomaly": "11.25947698753308",
        "mean_motion": ".4629972539556562",
        "equinox": "J2000",
        "orbit_class": {
            "orbit_class_type": "AMO",
            "orbit_class_description": "Near-Earth asteroid orbits similar to that of 1221 Amor",
            "orbit_class_range": "1.017 AU < q (perihelion) < 1.3 AU"
        }
    },
    "is_sentry_object": false
}